      2.10          N: GNSS NAV DATA                        RINEX VERSION / TYPE
fic2rin                                 09/05/2020 00:17:35 PGM / RUN BY / DATE
                                                            END OF HEADER
 6 20  9  4  1 59 44.0-3.224005922675e-04-3.637978807092e-12 0.000000000000e+00
    1.000000000000e+00 7.587500000000e+01 4.093027633887e-09 2.407007992927e+00
    4.051253199577e-06 1.764774438925e-03 5.416572093964e-06 5.153604387283e+03
    4.391840000000e+05-3.166496753693e-08 1.311122072788e+00 6.519258022308e-08
    9.805886474189e-01 2.847500000000e+02-1.110134522793e+00-7.955688529218e-09
    4.021596087048e-10 1.000000000000e+00 2.121000000000e+03 0.000000000000e+00
    2.400000000000e+00 0.000000000000e+00 4.190951585770e-09 1.000000000000e+00
    4.320000000000e+05 4.000000000000e+00
24 20  9  4  1 59 44.0-1.809792593122e-05-5.684341886081e-13 0.000000000000e+00
    3.300000000000e+01 7.221875000000e+01 5.386295789411e-09 2.376016573736e+00
    3.658235073090e-06 9.992832783610e-03 6.949529051781e-06 5.153638191223e+03
    4.391840000000e+05-1.341104507446e-07-1.893454527673e+00-1.620501279831e-07
    9.357894466781e-01 2.316250000000e+02 6.740568801004e-01-8.408564536178e-09
    5.293077620786e-10 1.000000000000e+00 2.121000000000e+03 0.000000000000e+00
    2.400000000000e+00 0.000000000000e+00 2.793967723846e-09 3.300000000000e+01
    4.320000000000e+05 4.000000000000e+00
 1 20  9  4  2  0  0.0 3.596348688006e-05 4.547473508865e-13 0.000000000000e+00
    3.300000000000e+01 7.462500000000e+01 4.107671100989e-09 2.075229025939e+00
    3.751367330551e-06 1.008516433649e-02 5.710870027542e-06 5.153699947357e+03
    4.392000000000e+05-1.788139343262e-07 1.319372510898e+00-1.583248376846e-07
    9.810494315038e-01 2.797812500000e+02 8.259000730017e-01-8.003190507866e-09
    4.089456056545e-10 1.000000000000e+00 2.121000000000e+03 0.000000000000e+00
    2.400000000000e+00 0.000000000000e+00 5.122274160385e-09 3.300000000000e+01
    4.320000000000e+05 4.000000000000e+00
 2 20  9  4  2  0  0.0-5.115708336234e-04-5.229594535194e-12 0.000000000000e+00
    1.050000000000e+02 8.971875000000e+01 4.374467928434e-09 2.314660216855e+00
    4.505738615990e-06 1.979039458092e-02 5.591660737991e-06 5.153770141602e+03
    4.392000000000e+05 3.017485141754e-07 1.241016618763e+00-6.519258022308e-08
    9.600117098497e-01 2.644062500000e+02-1.606322714497e+00-7.858184467782e-09
    3.996595045654e-10 1.000000000000e+00 2.121000000000e+03 0.000000000000e+00
    3.400000000000e+00 0.000000000000e+00-1.769512891769e-08 1.050000000000e+02
    4.320000000000e+05 4.000000000000e+00
 5 20  9  4  2  0  0.0-2.030050382018e-05-7.958078640513e-13 0.000000000000e+00
    5.900000000000e+01-6.659375000000e+01 4.917347684412e-09-1.297913830178e+00
   -3.300607204437e-06 6.096472265199e-03 3.889203071594e-06 5.153724227905e+03
    4.392000000000e+05 8.940696716309e-08 2.326423223677e+00 2.421438694000e-08
    9.535142967149e-01 2.939687500000e+02 8.622527460936e-01-8.455709357092e-09
   -2.032227507576e-10 1.000000000000e+00 2.121000000000e+03 0.000000000000e+00
    2.400000000000e+00 0.000000000000e+00-1.117587089539e-08 5.900000000000e+01
    4.320000000000e+05 4.000000000000e+00
 3 20  9  4  2  0  0.0-2.891472540796e-04-1.080024958355e-11 0.000000000000e+00
    1.020000000000e+02-6.440625000000e+01 4.605548982459e-09 9.388797645679e-01
   -3.559514880180e-06 3.201183164492e-03 4.407018423080e-06 5.153754144669e+03
    4.392000000000e+05-1.303851604462e-08 2.359677428962e+00 1.117587089539e-08
    9.666244111695e-01 2.969062500000e+02 8.541627374323e-01-8.319989418098e-09
   -2.542963067476e-10 1.000000000000e+00 2.121000000000e+03 0.000000000000e+00
    2.400000000000e+00 0.000000000000e+00 1.862645149231e-09 1.020000000000e+02
    4.320000000000e+05 4.000000000000e+00
 7 20  9  4  2  0  0.0-3.648567944765e-04-8.299139153678e-12 0.000000000000e+00
    2.400000000000e+01 5.812500000000e+01 5.159143470462e-09 1.374929229996e+00
    3.134831786156e-06 1.421028701589e-02 6.599351763725e-06 5.153644638062e+03
    4.392000000000e+05-2.440065145493e-07-1.819594165241e+00 2.104789018631e-07
    9.524223731976e-01 2.526875000000e+02-2.367723883626e+00-8.578214459922e-09
    3.121558596874e-10 1.000000000000e+00 2.121000000000e+03 0.000000000000e+00
    2.400000000000e+00 0.000000000000e+00-1.117587089539e-08 2.400000000000e+01
    4.320000000000e+05 4.000000000000e+00
26 20  9  4  2  0  0.0 2.728221006691e-04 6.480149750132e-12 0.000000000000e+00
    1.300000000000e+01-4.840625000000e+01 5.292363305318e-09-1.208877293106e-01
   -2.663582563400e-06 4.905454232357e-03 4.731118679047e-06 5.153666610718e+03
    4.392000000000e+05 5.960464477539e-08-8.189143027020e-01 6.705522537231e-08
    9.451755305375e-01 2.785937500000e+02 2.010906403695e-01-8.613573075607e-09
   -5.003779856087e-10 1.000000000000e+00 2.121000000000e+03 0.000000000000e+00
    2.400000000000e+00 0.000000000000e+00 6.984919309616e-09 1.300000000000e+01
    4.320000000000e+05 4.000000000000e+00
16 20  9  4  2  0  0.0-2.044346183538e-04-5.002220859751e-12 0.000000000000e+00
    3.600000000000e+01-5.190625000000e+01 4.402683389435e-09-1.186432255963e+00
   -2.674758434296e-06 1.153959461953e-02 5.953013896942e-06 5.153560232162e+03
    4.392000000000e+05 2.980232238770e-07-6.927497737516e-01-1.490116119385e-08
    9.771083623825e-01 2.725000000000e+02 6.285906399175e-01-8.039263439020e-09
   -5.050210361533e-10 1.000000000000e+00 2.121000000000e+03 0.000000000000e+00
    2.400000000000e+00 0.000000000000e+00-1.071020960808e-08 3.600000000000e+01
    4.320000000000e+05 4.000000000000e+00
10 20  9  4  2  0  0.0-4.453985020518e-04-1.000444171950e-11 0.000000000000e+00
    5.800000000000e+01-6.690625000000e+01 4.680194948905e-09 6.407435919425e-02
   -3.434717655182e-06 5.853857612237e-03 4.425644874573e-06 5.153666555405e+03
    4.392000000000e+05 6.519258022308e-08 2.356679650881e+00 1.117587089539e-07
    9.665501636882e-01 2.981875000000e+02-2.657985298431e+00-8.411421798052e-09
   -2.335811581642e-10 1.000000000000e+00 2.121000000000e+03 0.000000000000e+00
    2.400000000000e+00 0.000000000000e+00 2.328306436539e-09 5.800000000000e+01
    4.320000000000e+05 4.000000000000e+00
11 20  9  4  2  0  0.0-1.741535961628e-04 1.057287590811e-11 0.000000000000e+00
    3.900000000000e+01 6.834375000000e+01 5.362723378954e-09 1.549440458494e+00
    3.475695848465e-06 1.599303691182e-02 8.761882781982e-06 5.153719125748e+03
    4.392000000000e+05 4.060566425323e-07 8.382889234928e-01-1.378357410431e-07
    9.133932490551e-01 1.799062500000e+02 2.037201218019e+00-8.390706649469e-09
    2.753686130652e-10 1.000000000000e+00 2.121000000000e+03 0.000000000000e+00
    2.400000000000e+00 0.000000000000e+00-1.210719347000e-08 3.900000000000e+01
    4.320000000000e+05 4.000000000000e+00
 9 20  9  4  2  0  0.0-2.807159908116e-04-5.798028723802e-12 0.000000000000e+00
    7.900000000000e+01-2.618750000000e+01 4.534474593353e-09-1.629574755770e+00
   -1.231208443642e-06 1.716903643683e-03 1.157261431217e-05 5.153670469284e+03
    4.392000000000e+05-2.048909664154e-08-2.893114865047e+00 1.676380634308e-08
    9.533654682070e-01 1.560937500000e+02 1.764028529657e+00-7.964974630307e-09
    9.000374901741e-11 1.000000000000e+00 2.121000000000e+03 0.000000000000e+00
    2.400000000000e+00 0.000000000000e+00 1.396983861923e-09 7.900000000000e+01
    4.320000000000e+05 4.000000000000e+00
 8 20  9  4  2  0  0.0-4.674028605223e-05-1.250555214938e-12 0.000000000000e+00
    9.000000000000e+01 1.812500000000e+00 3.980880105350e-09-1.899572588594e+00
    1.434236764908e-07 5.438502877951e-03 1.193769276142e-05 5.153718702316e+03
    4.392000000000e+05-6.146728992462e-08 2.485598055822e-01-7.450580596924e-09
    9.695150407416e-01 1.553750000000e+02-6.353628329551e-02-7.704963799812e-09
   -1.032185851827e-10 1.000000000000e+00 2.121000000000e+03 0.000000000000e+00
    3.400000000000e+00 0.000000000000e+00 5.122274160385e-09 9.000000000000e+01
    4.320000000000e+05 4.000000000000e+00
 4 20  9  4  2  0  0.0-1.320284791291e-04-4.206412995700e-12 0.000000000000e+00
    1.750000000000e+02-2.306250000000e+01 4.351252675711e-09-2.799505800505e+00
   -1.164153218269e-06 8.125313324854e-04 1.205503940582e-05 5.153643552780e+03
    4.392000000000e+05 3.725290298462e-09-2.844436163555e+00-3.725290298462e-09
    9.605941721459e-01 1.521562500000e+02-2.816029515801e+00-7.839612265604e-09
    1.232194182976e-10 1.000000000000e+00 2.121000000000e+03 0.000000000000e+00
    2.400000000000e+00 0.000000000000e+00-4.190951585770e-09 4.310000000000e+02
    4.320000000000e+05 4.000000000000e+00
27 20  9  4  2  0  0.0-3.872425295413e-04-9.094947017729e-12 0.000000000000e+00
    4.200000000000e+01 6.000000000000e+00 3.718369170715e-09-2.043316179018e+00
    3.874301910400e-07 8.334053214639e-03 1.228600740433e-05 5.153674835205e+03
    4.392000000000e+05-3.166496753693e-08 2.636378125674e-01-1.043081283569e-07
    9.779832385960e-01 1.522187500000e+02 5.772834096455e-01-7.495669367573e-09
   -1.007184810433e-10 1.000000000000e+00 2.121000000000e+03 0.000000000000e+00
    2.400000000000e+00 0.000000000000e+00 1.862645149231e-09 4.200000000000e+01
    4.320000000000e+05 4.000000000000e+00
25 20  9  4  2  0  0.0 4.421127960086e-05 5.229594535194e-12 0.000000000000e+00
    4.100000000000e+01-4.818750000000e+01 4.895203904892e-09 4.393391219979e-01
   -2.438202500343e-06 9.106280049309e-03 5.410984158516e-06 5.153736555099e+03
    4.392000000000e+05-6.146728992462e-08-7.817698193481e-01 1.098960638046e-07
    9.641697677581e-01 2.757500000000e+02 9.350817117809e-01-8.465352615916e-09
   -5.493085951936e-10 1.000000000000e+00 2.121000000000e+03 0.000000000000e+00
    2.400000000000e+00 0.000000000000e+00 5.587935447693e-09 4.100000000000e+01
    4.320000000000e+05 4.000000000000e+00
